NOAA 1 [-]              
1 04793U 70106A   22312.47233229 -.00000017  00000+0  16315-3 0  9996
2 04793 101.5397  12.5593 0031666  42.5757 328.9996 12.54008726375644
NOAA 2 (ITOS-D) [-]     
1 06235U 72082A   22312.49211727 -.00000028  00000+0  11318-3 0  9995
2 06235 101.9708 295.7059 0003976 155.9431 317.1996 12.53153603290011
NOAA 3 [-]              
1 06920U 73086A   22312.38179785 -.00000040  00000+0  47527-4 0  9992
2 06920 102.2253 294.4268 0006792  25.9213 149.4235 12.40350035218636
NOAA 4 [-]              
1 07529U 74089A   22312.40293455 -.00000038  00000+0  51609-4 0  9999
2 07529 101.9322 292.5498 0008756 187.1803 341.1098 12.53162156194570
NOAA 5 [-]              
1 09057U 76077A   22312.43645965 -.00000036  00000+0  69422-4 0  9996
2 09057 102.1204 278.9865 0009448 234.6732 239.2402 12.37776135 91554
TIROS N [-]             
1 11060U 78096A   22312.18066120  .00000211  00000+0  12277-3 0  9997
2 11060  98.6179   1.9915 0011678  90.4525 269.7989 14.18434901491989
NOAA 6 [-]              
1 11416U 79057A   22312.02033462  .00000374  00000+0  15034-3 0  9990
2 11416  98.6626 323.0985 0010115 189.1394 170.9608 14.33831409262091
NOAA 7 [-]              
1 12553U 81059A   22312.38347099  .00000098  00000+0  71111-4 0  9993
2 12553  98.9817 358.4653 0012421  68.8010 291.4490 14.17353690138186
NOAA 8 [-]              
1 13923U 83022A   22312.40254169  .00000164  00000+0  82603-4 0  9997
2 13923  98.6994 302.4721 0015651 145.1499 215.0711 14.28852548 62962
NOAA 9 [-]              
1 15427U 84123A   22312.37705487  .00000145  00000+0  96539-4 0  9993
2 15427  99.0648 287.1465 0015692 115.7146   7.3676 14.16242292956987
NOAA 10 [-]             
1 16969U 86073A   22312.43051885  .00000158  00000+0  80662-4 0  9998
2 16969  98.5833 296.0364 0011126 249.4541 227.1597 14.28241673881388
NOAA 11 [-]             
1 19531U 88089A   22312.41969816  .00000072  00000+0  57942-4 0  9995
2 19531  98.4401 293.6931 0012123 120.7695 239.4675 14.15332783761185
NOAA 12 [-]             
1 21263U 91032A   22312.40239177  .00000119  00000+0  67716-4 0  9993
2 21263  98.5220 308.2428 0012490 279.2092  80.7676 14.26026137637244
NOAA 13 [-]             
1 22739U 93050A   22312.34932450  .00000141  00000+0  98046-4 0  9996
2 22739  98.5237 285.0946 0008534 295.2690  64.7599 14.12878781507375
NOAA 14 [-]             
1 23455U 94089A   22312.39152907  .00000044  00000+0  44358-4 0  9990
2 23455  98.4390 331.2560 0008330 270.9465  89.0754 14.14218031437058
NOAA 15 [B]             
1 25338U 98030A   22312.38396410  .00000185  00000+0  95539-4 0  9993
2 25338  98.6316 339.9572 0009510 234.4481 125.5813 14.26193098273533
NOAA 16 [-]             
1 26536U 00055A   22312.39236624  .00000103  00000+0  77363-4 0  9990
2 26536  98.6188   6.2045 0011538 112.9430 247.2962 14.13356831437684
NOAA 17 [-]             
1 27453U 02032A   22312.43011962  .00000165  00000+0  88850-4 0  9998
2 27453  98.6877 256.1014 0011148 208.9219 151.1344 14.25162693 59364
NOAA 18 [B]             
1 28654U 05018A   22312.40033928  .00000209  00000+0  13632-3 0  9996
2 28654  98.9359  22.6275 0013267 285.3239  74.6467 14.12803119900301
NOAA 19 [+]             
1 33591U 09005A   22312.34727960  .00000198  00000+0  13187-3 0  9993
2 33591  99.1328 349.4086 0014526 141.2801 218.9413 14.12634414708502
SUOMI NPP [+]           
1 37849U 11061A   22312.42709546  .00000095  00000+0  65744-4 0  9990
2 37849  98.7451 249.0447 0000986  87.5520  50.7307 14.19558765571621
NOAA 20 [+]             
1 43013U 17073A   22312.36409337  .00000101  00000+0  68550-4 0  9993
2 43013  98.7289 248.7276 0001309  60.5490 299.5816 14.19557333257644
